NORAD_CAT_ID,OBJECT_NAME,OBJECT_TYPE,EPOCH,MEAN_MOTION,ECCENTRICITY,INCLINATION,RA_OF_ASC_NODE,ARG_OF_PERICENTER,MEAN_ANOMALY,BSTAR,MEAN_MOTION_DOT,MEAN_MOTION_DDOT,TLE_LINE0,TLE_LINE1,TLE_LINE2,SEMIMAJOR_AXIS,PERIOD,APOGEE,PERIGEE,DECAYED
52690.0,STARLINK-4035,PAYLOAD,2023-01-30 12:05:35,15.08838304,0.0001158,53.2153,195.6799,95.4338,264.6786,5.5488e-05,5.95e-06,0.0,0 STARLINK-4035,1 52690U 22053AL  23030.50388234  .00000595  00000-0  55488-4 0  9998,2 52690  53.2153 195.6799 0001158  95.4338 264.6786 15.08838304 39524,6917.886,95.438,540.552,538.949,0.0
52690.0,STARLINK-4035,PAYLOAD,2023-01-30 20:02:30,15.08842585,0.0001154,53.2153,194.1928,93.918,266.1944,5.6319e-05,6.09e-06,0.0,0 STARLINK-4035,1 52690U 22053AL  23030.83507936  .00000609  00000-0  56319-4 0  9996,2 52690  53.2153 194.1928 0001154  93.9180 266.1944 15.08842585 39941,6917.872,95.437,540.536,538.939,0.0
52690.0,STARLINK-4035,PAYLOAD,2023-01-31 10:20:59,15.08835495,0.000122,53.2151,191.5157,95.5612,264.5519,9.9958e-05,1.303e-05,0.0,0 STARLINK-4035,1 52690U 22053AL  23031.43124431  .00001303  00000-0  99958-4 0  9996,2 52690  53.2151 191.5157 0001220  95.5612 264.5519 15.08835495 40030,6917.894,95.438,540.603,538.915,0.0
52690.0,STARLINK-4035,PAYLOAD,2023-02-01 10:11:46,15.08842168,0.000131,53.2144,187.0551,89.9819,270.1323,8.202e-05,1.018e-05,0.0,0 STARLINK-4035,1 52690U 22053AL  23032.42484107  .00001018  00000-0  82020-4 0  9990,2 52690  53.2144 187.0551 0001310  89.9819 270.1323 15.08842168 39811,6917.874,95.437,540.645,538.833,0.0
52690.0,STARLINK-4035,PAYLOAD,2023-02-02 13:13:19,15.08837031,0.000134,53.2154,182.0029,78.7956,281.3187,1.0298e-05,-1.24e-06,0.0,0 STARLINK-4035,1 52690U 22053AL  23033.55092553 -.00000124  00000-0  10298-4 0  9991,2 52690  53.2154 182.0029 0001340  78.7956 281.3187 15.08837031 40354,6917.889,95.438,540.681,538.827,0.0
52690.0,STARLINK-4035,PAYLOAD,2023-02-03 09:53:20,15.08839668,0.000132,53.2149,178.1352,91.9485,268.1659,3.5611e-06,-2.31e-06,0.0,0 STARLINK-4035,1 52690U 22053AL  23034.41204437 -.00000231  00000-0  35611-5 0  9999,2 52690  53.2149 178.1352 0001320  91.9485 268.1659 15.08839668 40484,6917.881,95.438,540.66,538.833,0.0
52690.0,STARLINK-4035,PAYLOAD,2023-02-03 19:25:39,15.08837259,0.0001487,53.214,176.35,98.6867,261.4294,3.2573e-05,2.3e-06,0.0,0 STARLINK-4035,1 52690U 22053AL  23034.80948512  .00000230  00000-0  32573-4 0  9992,2 52690  53.2140 176.3500 0001487  98.6867 261.4294 15.08837259 40173,6917.889,95.438,540.782,538.725,0.0
52690.0,STARLINK-4035,PAYLOAD,2023-02-04 14:30:16,15.08843164,0.0001312,53.2146,172.782,91.8097,268.3045,0.00012904,1.767e-05,0.0,0 STARLINK-4035,1 52690U 22053AL  23035.60435990  .00001767  00000-0  12904-3 0  9993,2 52690  53.2146 172.7820 0001312  91.8097 268.3045 15.08843164 40667,6917.871,95.437,540.643,538.828,0.0
52690.0,STARLINK-4035,PAYLOAD,2023-02-04 19:16:25,15.08847545,0.0001307,53.2155,171.8903,81.2501,278.8639,0.000143,1.989e-05,0.0,0 STARLINK-4035,1 52690U 22053AL  23035.80307752  .00001989  00000-0  14300-3 0  9997,2 52690  53.2155 171.8903 0001307  81.2501 278.8639 15.08847545 40321,6917.857,95.437,540.626,538.818,0.0
52690.0,STARLINK-4035,PAYLOAD,2023-02-05 01:37:59,15.08833781,0.0001469,53.2149,170.7001,85.0754,275.0406,4.304e-05,3.97e-06,0.0,0 STARLINK-4035,1 52690U 22053AL  23036.06805001  .00000397  00000-0  43040-4 0  9992,2 52690  53.2149 170.7001 0001469  85.0754 275.0406 15.08833781 40364,6917.899,95.438,540.781,538.748,0.0
52690.0,STARLINK-4035,PAYLOAD,2023-02-05 14:21:04,15.08831989,0.0001206,53.2169,168.3201,88.0841,272.0289,-8.0028e-06,-4.15e-06,0.0,0 STARLINK-4035,1 52690U 22053AL  23036.59797389 -.00000415  00000-0 -80028-5 0  9990,2 52690  53.2169 168.3201 0001206  88.0841 272.0289 15.08831989 40814,6917.905,95.438,540.604,538.936,0.0
52690.0,STARLINK-4035,PAYLOAD,2023-02-05 17:31:51,15.08834947,0.0001252,53.2153,167.7265,87.1595,272.954,2.368e-05,8.9e-07,0.0,0 STARLINK-4035,1 52690U 22053AL  23036.73045159  .00000089  00000-0  23680-4 0  9992,2 52690  53.2153 167.7265 0001252  87.1595 272.9540 15.08834947 40835,6917.896,95.438,540.627,538.895,0.0
52690.0,STARLINK-4035,PAYLOAD,2023-02-06 12:36:28,15.08845227,0.0001244,53.2163,164.1587,93.4124,266.701,9.7562e-05,1.265e-05,0.0,0 STARLINK-4035,1 52690U 22053AL  23037.52532542  .00001265  00000-0  97562-4 0  9994,2 52690  53.2163 164.1587 0001244  93.4124 266.7010 15.08845227 40952,6917.864,95.437,540.59,538.869,0.0
52690.0,STARLINK-4035,PAYLOAD,2023-02-06 17:22:37,15.08850802,0.0001295,53.216,163.2652,91.9363,268.1777,0.00016122,2.28e-05,0.0,0 STARLINK-4035,1 52690U 22053AL  23037.72404119  .00002280  00000-0  16122-3 0  9994,2 52690  53.2160 163.2652 0001295  91.9363 268.1777 15.08850802 40610,6917.847,95.437,540.608,538.817,0.0
52690.0,STARLINK-4035,PAYLOAD,2023-02-07 07:41:05,15.08844475,0.0001567,53.216,160.5917,79.9685,280.1484,0.00025326,3.745e-05,0.0,0 STARLINK-4035,1 52690U 22053AL  23038.32020522  .00003745  00000-0  25326-3 0  9996,2 52690  53.2160 160.5917 0001567  79.9685 280.1484 15.08844475 40707,6917.867,95.437,540.816,538.648,0.0
52690.0,STARLINK-4035,PAYLOAD,2023-02-07 14:02:38,15.08846957,0.000149,53.2156,159.4032,78.691,281.4249,0.00015201,2.133e-05,0.0,0 STARLINK-4035,1 52690U 22053AL  23038.58516296  .00002133  00000-0  15201-3 0  9993,2 52690  53.2156 159.4032 0001490  78.6910 281.4249 15.08846957 41115,6917.859,95.437,540.755,538.693,0.0
52690.0,STARLINK-4035,PAYLOAD,2023-02-07 15:38:00,15.08857867,0.0001176,53.2161,159.1018,88.2233,271.8894,0.00033967,5.125e-05,0.0,0 STARLINK-4035,1 52690U 22053AL  23038.65139620  .00005125  00000-0  33967-3 0  9996,2 52690  53.2161 159.1018 0001176  88.2233 271.8894 15.08857867 40758,6917.826,95.436,540.504,538.877,0.0
52690.0,STARLINK-4035,PAYLOAD,2023-02-08 10:42:38,15.08834403,0.000113,53.2161,155.534,104.5627,255.5491,-0.00011456,-2.11e-05,0.0,0 STARLINK-4035,1 52690U 22053AL  23039.44628418 -.00002110  00000-0 -11456-3 0  9994,2 52690  53.2161 155.5340 0001130 104.5627 255.5491 15.08834403 40871,6917.897,95.438,540.544,538.981,0.0
52690.0,STARLINK-4035,PAYLOAD,2023-02-08 13:53:24,15.08846209,0.0001322,53.2149,154.9414,91.8594,268.2549,7.5531e-05,9.15e-06,0.0,0 STARLINK-4035,1 52690U 22053AL  23039.57876133  .00000915  00000-0  75531-4 0  9991,2 52690  53.2149 154.9414 0001322  91.8594 268.2549 15.08846209 41262,6917.861,95.437,540.641,538.812,0.0
52690.0,STARLINK-4035,PAYLOAD,2023-02-08 18:39:34,15.08856616,0.0001438,53.2155,154.0499,102.1646,257.9508,0.00067678,0.00010504,0.0,0 STARLINK-4035,1 52690U 22053AL  23039.77747865  .00010504  00000-0  67678-3 0  9999,2 52690  53.2155 154.0499 0001438 102.1646 257.9508 15.08856616 40920,6917.83,95.437,540.689,538.7,0.0
52690.0,STARLINK-4035,PAYLOAD,2023-02-09 01:01:07,15.08833387,0.0001316,53.2142,152.8588,98.9076,261.2065,-6.6507e-06,-3.94e-06,0.0,0 STARLINK-4035,1 52690U 22053AL  23040.04244465 -.00000394  00000-0 -66507-5 0  9999,2 52690  53.2142 152.8588 0001316  98.9076 261.2065 15.08833387 40965,6917.901,95.438,540.676,538.855,0.0
52690.0,STARLINK-4035,PAYLOAD,2023-02-09 10:33:26,15.08835019,0.0001317,53.2148,151.0764,90.7448,269.3695,0.00017016,2.421e-05,0.0,0 STARLINK-4035,1 52690U 22053AL  23040.43988748  .00002421  00000-0  17016-3 0  9991,2 52690  53.2148 151.0764 0001317  90.7448 269.3695 15.08835019 41392,6917.896,95.438,540.672,538.85,0.0
52690.0,STARLINK-4035,PAYLOAD,2023-02-09 18:30:21,15.08866398,0.0001275,53.2147,149.5884,96.138,263.9758,0.0014796,0.00023355,0.0,0 STARLINK-4035,1 52690U 22053AL  23040.77108173  .00023355  00000-0  14796-2 0  9994,2 52690  53.2147 149.5884 0001275  96.1380 263.9758 15.08866398 41073,6917.8,95.436,540.547,538.783,0.0
52690.0,STARLINK-4035,PAYLOAD,2023-02-10 11:59:36,15.08874292,0.0001467,53.2146,146.3173,116.0817,244.0326,0.0028434,0.00045299,0.0,0 STARLINK-4035,1 52690U 22053AL  23041.49972379  .00045299  00000-0  28434-2 0  9996,2 52690  53.2146 146.3173 0001467 116.0817 244.0326 15.08874292 41183,6917.776,95.435,540.655,538.626,0.0
52690.0,STARLINK-4035,PAYLOAD,2023-02-10 13:34:59,15.08883654,0.000115,53.2145,146.02,88.512,271.6003,0.0034351,0.00054873,0.0,0 STARLINK-4035,1 52690U 22053AL  23041.56596348  .00054873  00000-0  34351-2 0  9995,2 52690  53.2145 146.0200 0001150  88.5120 271.6003 15.08883654 41561,6917.747,95.435,540.408,538.816,0.0
52690.0,STARLINK-4035,PAYLOAD,2023-02-11 08:39:37,15.08860301,8.37e-05,53.2145,142.4522,97.0381,263.0706,0.0040662,0.00065059,0.0,0 STARLINK-4035,1 52690U 22053AL  23042.36085407  .00065059  00000-0  40662-2 0  9993,2 52690  53.2145 142.4522 0000837  97.0381 263.0706 15.08860301 41315,6917.818,95.436,540.262,539.104,0.0
52690.0,STARLINK-4035,PAYLOAD,2023-02-11 16:36:33,15.08865507,9.32e-05,53.2147,140.9649,128.3201,231.7875,0.002955,0.00047088,0.0,0 STARLINK-4035,1 52690U 22053AL  23042.69205018  .00047088  00000-0  29550-2 0  9996,2 52690  53.2147 140.9649 0000932 128.3201 231.7875 15.08865507 41362,6917.802,95.436,540.312,539.023,0.0
52690.0,STARLINK-4035,PAYLOAD,2023-02-11 22:58:05,15.08853354,0.000114,53.2143,139.7698,96.5465,263.5657,0.0014113,0.00022252,0.0,0 STARLINK-4035,1 52690U 22053AL  23042.95701224  .00022252  00000-0  14113-2 0  9990,2 52690  53.2143 139.7698 0001140  96.5465 263.5657 15.08853354 41401,6917.84,95.437,540.493,538.916,0.0
52690.0,STARLINK-4035,PAYLOAD,2023-02-12 13:16:33,15.0889161,0.0001249,53.2138,137.0995,121.4705,238.641,0.0025175,0.00040063,0.0,0 STARLINK-4035,1 52690U 22053AL  23043.55316052  .00040063  00000-0  25175-2 0  9998,2 52690  53.2138 137.0995 0001249 121.4705 238.6410 15.08891610 41868,6917.723,95.434,540.452,538.724,0.0
52690.0,STARLINK-4035,PAYLOAD,2023-02-12 14:51:55,15.08902585,0.0001321,53.2146,136.8019,124.0298,236.0819,0.0030074,0.00047983,0.0,0 STARLINK-4035,1 52690U 22053AL  23043.61939782  .00047983  00000-0  30074-2 0  9998,2 52690  53.2146 136.8019 0001321 124.0298 236.0819 15.08902585 41508,6917.689,95.434,540.468,538.64,0.0
